ParentKey	LineNum	AddressName	Street	Block	ZipCode	City	County	Country	State	FederalTaxID	TaxCode	BuildingFloorRoom	AddressType	AddressName2	AddressName3	TypeOfAddress	StreetNo
CardCode	LineNum	Address	Street	Block	ZipCode	City	County	Country	State	LicTradNum	TaxCode	Building	AdresType	Address2	Address3	AddrType	StreetNo
FOR0001		COBRAN‚A	MONS. CLODOALDO DE PAIVA	LOT. NACOES UNIDAS	13974-908	ITAPIRA	ITAPIRA	BR	SP				bo_BillTo			RODOVIA	KM 46,2
FOR0002		COBRAN‚A	TOWER AUTOMOTIVE	LARANJA AZEDA	07430-350	ARUJA	ARUJA	BR	SP				bo_BillTo			AVENIDA	300 - GALPÌO 26
FOR0003		COBRAN‚A	ALLAN KARDEC	DIVINO ESPIRITO SANT	29107-240	VILA VELHA	VILA VELHA	BR	ES				bo_BillTo			RUA	467 - LT 162 QD 23
FOR0004		COBRAN‚A	CORONEL-PM NELSON TRANC	ITAQUI	06696-110	ITAPEVI	ITAPEVI	BR	SP				bo_BillTo			RODOVIA	KM 34,5
FOR0005		COBRAN‚A	XV DE NOEMBRO	CENTRO	27175-000	PIRAI	PIRAI	BR	RJ				bo_BillTo			RUA	450 - GP 02
FOR0006		COBRAN‚A	JOÌO BAPTISTA PARRA	PRAIA DO SUç	29052-120	VITORIA	VITORIA	BR	ES				bo_BillTo			AVENIDA	633 - SALA 404
FOR0007		COBRAN‚A	HUMAITA	SANTA CRUZ DO JOSE JACQUES	14020-680	RIBEIRAO PRETO	RIBEIRAO PRETO	BR	SP				bo_BillTo			RUA	290
FOR0008		COBRAN‚A	TEONILIO NIQUINI	DISTRITO INDUSTRIAL JARDIMPIEMONT SUL	32669-700	BETIM	BETIM	BR	MG				bo_BillTo			RUA	580 A
FOR0009		COBRAN‚A	PRESIDENTE TANCREDO NEVES	CASTELO	31330-430	BELO HORIZONTE 	BELO HORIZONTE 	BR	MG				bo_BillTo			AVENIDA	3269
FOR0010		COBRAN‚A	ANDRE DE LEAO	MODOCA	03101-010	SÌO PAULO	SÌO PAULO	BR	SP				bo_BillTo			RUA 	107
FOR0011		COBRAN‚A	VIA PRINCIPAL 2 D N¼ 0 / QD 04 MOD 8	D.A.I.A	75132-045	ANAPOLIS	ANAPOLIS	BR	GO				bo_BillTo			RODOVIA	
FOR0012		COBRAN‚A	CENTRAL	JARDIM TROPICAL	29162-000	SERRA	SERRA	BR	ES				bo_BillTo			AVENIDA 	513
FOR0013		COBRAN‚A	FERNANDO FERRARI	GOIABEIRAS	29075-063	VITORIA	VITORIA	BR	ES				bo_BillTo			AVENIDA	1631
FOR0014		COBRAN‚A	EMILIO MARCONATO	NUCLEO RES DR JOAO ALDO NASSIF	13916-074	JAGUARIUNA	JAGUARIUNA	BR	SP				bo_BillTo			PRACA	1000
FOR0015		COBRAN‚A	DARLY SANTOS 	NOSSA SENHORA DA PENHA 	29110-340	VILA VELHA	VILA VELHA	BR	ES				bo_BillTo			RODOVIA 	2025
FOR0016		COBRAN‚A	JUIZ ALEXANDRE MARTINS DE CASTRO FILHO	ITAPOA	29101-800	VILA VELHA	VILA VELHA	BR	ES				bo_BillTo			RUA	8
FOR0017		COBRAN‚A	ALZIRA FERNANDES DE SOUZA	SION	36400-000	CONSELHEIRO LAFAIETE	CONSELHEIRO LAFAIETE	BR	MG				bo_BillTo			RUA	76
FOR0018		COBRAN‚A	PEDRO PASCOAL DOS SANTOS	RESIDENCIAL REAL PARQUE SUMARE	13178-561	SUMARE	SUMARE	BR	SP				bo_BillTo			AVENIDA	410
FOR0019		COBRAN‚A	DOMINGOS VIEIRA	SANTA EFIGENIA 	30150-242	BELO HORIZONTE 	BELO HORIZONTE 	BR	MG				bo_BillTo			RUA	591
FOR0020		COBRAN‚A	PEDRO ALVARES CABRAL	BAIRRO DE FATIMA 	29160-772	SERRA	SERRA	BR	ES				bo_BillTo			RUA	70
FOR0021		COBRAN‚A	CURITIBA	ITAPOA	29101-420	VILA VELHA	VILA VELHA	BR	ES				bo_BillTo			RUA	1390
FOR0022		COBRAN‚A	VEREADOR RAYMUNDO HARGREAVES	MILHO BRANCO	36083-770	JUIZ DE FORA	JUIZ DE FORA	BR	MG				bo_BillTo			AVENIDA	98
FOR0023		COBRAN‚A	PETUNIA	CHACARAS BOA VISTA	32150-200	CONTAGEM	CONTAGEM	BR	MG				bo_BillTo			RUA	138
FOR0024		COBRAN‚A	NUCR INTERSECCAO ROD DF001 C/ROD 475	PONTE ALTA NORTE (GAMA)	72427-010	BRASILIA	BRASILIA	BR	DF				bo_BillTo			RODOVIA	2
FOR0025		COBRAN‚A	BR153	CONJ RESIDENCIAL PALMARES	74775-027	GOIANIA	GOIANIA	BR	GO				bo_BillTo			RODOVIA 	S/N
FOR0026		COBRAN‚A	INGLATERRA	TIBERY	38405-050	UBERLANDIA	URBELANDIA	BR	MG				bo_BillTo			AVENIDA	40
FOR0027		COBRAN‚A	DAS NACOES	VERA CRUZ	74976-190	APARECIDA DE GOIANIA	APARECIDA DE GOIANIA	BR	GO				bo_BillTo			AVENIDA 	S/N
FOR0028		COBRAN‚A	COMENDADOR JOSE ZILLO	INDUSTRIAL	19908-170	OURINHOS	OURINHOS	BR	SP				bo_BillTo			AVENIDA	160
FOR0029		COBRAN‚A	PEDRO ZANGRANDE	JARDIM LIMOEIRO	29164-020	SERRA	SERRA	BR	ES				bo_BillTo			RUA	1215
FOR0030		COBRAN‚A	ERNESTO WILD	INDUSTRIAL	96880-000	VERA CRUZ	VERA CRUZ	BR	RS				bo_BillTo			RUA	2460
FOR0031		COBRAN‚A	AUTOMOVEL CLUB	VILAR DOS TELES	25565-171	SÌO JOAO DE MERITI	SAO JOAO DE MERITI	BR	RJ				bo_BillTo			AVENIDA	2697
FOR0032		COBRAN‚A		PARQUE NORTE	33200-000	VESPASIANO	VESPASIANO	BR	MG				bo_BillTo			RUA	283
FOR0033		COBRAN‚A	FRANCISCO FETT	VILA PAULO SILAS	03264-000	SÌO PAULO	SÌO PAULO	BR	SP				bo_BillTo			RUA	433
FOR0034		COBRAN‚A	STRC TRECHO 3 CONJUNTO C LOTE	ZONA INDUSTRIAL (GUARA)	71255-533	BRASILIA	BRASILIA	BR	DF				bo_BillTo			RUA 	6
FOR0035		COBRAN‚A	TANCREDO NEVES	SAO DIOGO I	29163-267	SERRA	SERRA	BR	ES				bo_BillTo			RUA	337
FOR0036		COBRAN‚A	LITORANEA	JARDIM GRAMACHO	25056-075	DUQUE DE CAXIAS	DUQUE DE CAXIAS	BR	RJ				bo_BillTo			AVENIDA	263
FOR0037		COBRAN‚A	V AC SUL KM 30 - - RODOVIA ANHANGUERA, KM 29+503	EMPRESARIAL MIRANTE DE CAJAMAR (POLVILHO)	07790-330	CAJAMAR	CAJAMAR	BR	SP				bo_BillTo			RODOVIA	SN
FOR0038		COBRAN‚A	FRANCO GRILO	COLONIA DONA LUIZA	84045-320	PONTA GROSSA	PONTA GROSSA	BR	PR				bo_BillTo			RUA	374
FOR0039		COBRAN‚A	MANUEL VITORINO	ENCANTADO	20740-280	RIO DE JANEIRO	RIO DE JANEIRO	BR	RJ				bo_BillTo			RUA	155
FOR0001		ENTREGA	MONS. CLODOALDO DE PAIVA	LOT. NACOES UNIDAS	13974-908	ITAPIRA	ITAPIRA	BR	SP				bo_ShipTo			RODOVIA	KM 46,2
FOR0002		ENTREGA	TOWER AUTOMOTIVE	LARANJA AZEDA	07430-350	ARUJA	ARUJA	BR	SP				bo_ShipTo			AVENIDA	300 - GALPÌO 26
FOR0003		ENTREGA	ALLAN KARDEC	DIVINO ESPIRITO SANT	29107-240	VILA VELHA	VILA VELHA	BR	ES				bo_ShipTo			RUA	467 - LT 162 QD 23
FOR0004		ENTREGA	CORONEL-PM NELSON TRANC	ITAQUI	06696-110	ITAPEVI	ITAPEVI	BR	SP				bo_ShipTo			RODOVIA	KM 34,5
FOR0005		ENTREGA	XV DE NOEMBRO	CENTRO	27175-000	PIRAI	PIRAI	BR	RJ				bo_ShipTo			RUA	450 - GP 02
FOR0006		ENTREGA	JOÌO BAPTISTA PARRA	PRAIA DO SUç	29052-120	VITORIA	VITORIA	BR	ES				bo_ShipTo			AVENIDA	633 - SALA 404
FOR0007		ENTREGA	HUMAITA	SANTA CRUZ DO JOSE JACQUES	14020-680	RIBEIRAO PRETO	RIBEIRAO PRETO	BR	SP				bo_ShipTo			RUA	290
FOR0008		ENTREGA	TEONILIO NIQUINI	DISTRITO INDUSTRIAL JARDIMPIEMONT SUL	32669-700	BETIM	BETIM	BR	MG				bo_ShipTo			RUA	580 A
FOR0009		ENTREGA	PRESIDENTE TANCREDO NEVES	CASTELO	31330-430	BELO HORIZONTE 	BELO HORIZONTE 	BR	MG				bo_ShipTo			AVENIDA	3269
FOR0010		ENTREGA	ANDRE DE LEAO	MODOCA	03101-010	SÌO PAULO	SÌO PAULO	BR	SP				bo_ShipTo			RUA 	107
FOR0011		ENTREGA	VIA PRINCIPAL 2 D N¼ 0 / QD 04 MOD 8	D.A.I.A	75132-045	ANAPOLIS	ANAPOLIS	BR	GO				bo_ShipTo			RODOVIA	
FOR0012		ENTREGA	CENTRAL	JARDIM TROPICAL	29162-000	SERRA	SERRA	BR	ES				bo_ShipTo			AVENIDA 	513
FOR0013		ENTREGA	FERNANDO FERRARI	GOIABEIRAS	29075-063	VITORIA	VITORIA	BR	ES				bo_ShipTo			AVENIDA	1631
FOR0014		ENTREGA	EMILIO MARCONATO	NUCLEO RES DR JOAO ALDO NASSIF	13916-074	JAGUARIUNA	JAGUARIUNA	BR	SP				bo_ShipTo			PRACA	1000
FOR0015		ENTREGA	DARLY SANTOS 	NOSSA SENHORA DA PENHA 	29110-340	VILA VELHA	VILA VELHA	BR	ES				bo_ShipTo			RODOVIA 	2025
FOR0016		ENTREGA	JUIZ ALEXANDRE MARTINS DE CASTRO FILHO	ITAPOA	29101-800	VILA VELHA	VILA VELHA	BR	ES				bo_ShipTo			RUA	8
FOR0017		ENTREGA	ALZIRA FERNANDES DE SOUZA	SION	36400-000	CONSELHEIRO LAFAIETE	CONSELHEIRO LAFAIETE	BR	MG				bo_ShipTo			RUA	76
FOR0018		ENTREGA	PEDRO PASCOAL DOS SANTOS	RESIDENCIAL REAL PARQUE SUMARE	13178-561	SUMARE	SUMARE	BR	SP				bo_ShipTo			AVENIDA	410
FOR0019		ENTREGA	DOMINGOS VIEIRA	SANTA EFIGENIA 	30150-242	BELO HORIZONTE 	BELO HORIZONTE 	BR	MG				bo_ShipTo			RUA	591
FOR0020		ENTREGA	PEDRO ALVARES CABRAL	BAIRRO DE FATIMA 	29160-772	SERRA	SERRA	BR	ES				bo_ShipTo			RUA	70
FOR0021		ENTREGA	CURITIBA	ITAPOA	29101-420	VILA VELHA	VILA VELHA	BR	ES				bo_ShipTo			RUA	1390
FOR0022		ENTREGA	VEREADOR RAYMUNDO HARGREAVES	MILHO BRANCO	36083-770	JUIZ DE FORA	JUIZ DE FORA	BR	MG				bo_ShipTo			AVENIDA	98
FOR0023		ENTREGA	PETUNIA	CHACARAS BOA VISTA	32150-200	CONTAGEM	CONTAGEM	BR	MG				bo_ShipTo			RUA	138
FOR0024		ENTREGA	NUCR INTERSECCAO ROD DF001 C/ROD 475	PONTE ALTA NORTE (GAMA)	72427-010	BRASILIA	BRASILIA	BR	DF				bo_ShipTo			RODOVIA	2
FOR0025		ENTREGA	BR153	CONJ RESIDENCIAL PALMARES	74775-027	GOIANIA	GOIANIA	BR	GO				bo_ShipTo			RODOVIA 	S/N
FOR0026		ENTREGA	INGLATERRA	TIBERY	38405-050	UBERLANDIA	URBELANDIA	BR	MG				bo_ShipTo			AVENIDA	40
FOR0027		ENTREGA	DAS NACOES	VERA CRUZ	74976-190	APARECIDA DE GOIANIA	APARECIDA DE GOIANIA	BR	GO				bo_ShipTo			AVENIDA 	S/N
FOR0028		ENTREGA	COMENDADOR JOSE ZILLO	INDUSTRIAL	19908-170	OURINHOS	OURINHOS	BR	SP				bo_ShipTo			AVENIDA	160
FOR0029		ENTREGA	PEDRO ZANGRANDE	JARDIM LIMOEIRO	29164-020	SERRA	SERRA	BR	ES				bo_ShipTo			RUA	1215
FOR0030		ENTREGA	ERNESTO WILD	INDUSTRIAL	96880-000	VERA CRUZ	VERA CRUZ	BR	RS				bo_ShipTo			RUA	2460
FOR0031		ENTREGA	AUTOMOVEL CLUB	VILAR DOS TELES	25565-171	SÌO JOAO DE MERITI	SAO JOAO DE MERITI	BR	RJ				bo_ShipTo			AVENIDA	2697
FOR0032		ENTREGA		PARQUE NORTE	33200-000	VESPASIANO	VESPASIANO	BR	MG				bo_ShipTo			RUA	283
FOR0033		ENTREGA	FRANCISCO FETT	VILA PAULO SILAS	03264-000	SÌO PAULO	SÌO PAULO	BR	SP				bo_ShipTo			RUA	433
FOR0034		ENTREGA	STRC TRECHO 3 CONJUNTO C LOTE	ZONA INDUSTRIAL (GUARA)	71255-533	BRASILIA	BRASILIA	BR	DF				bo_ShipTo			RUA 	6
FOR0035		ENTREGA	TANCREDO NEVES	SAO DIOGO I	29163-267	SERRA	SERRA	BR	ES				bo_ShipTo			RUA	337
FOR0036		ENTREGA	LITORANEA	JARDIM GRAMACHO	25056-075	DUQUE DE CAXIAS	DUQUE DE CAXIAS	BR	RJ				bo_ShipTo			AVENIDA	263
FOR0037		ENTREGA	V AC SUL KM 30 - - RODOVIA ANHANGUERA, KM 29+503	EMPRESARIAL MIRANTE DE CAJAMAR (POLVILHO)	07790-330	CAJAMAR	CAJAMAR	BR	SP				bo_ShipTo			RODOVIA	SN
FOR0038		ENTREGA	FRANCO GRILO	COLONIA DONA LUIZA	84045-320	PONTA GROSSA	PONTA GROSSA	BR	PR				bo_ShipTo			RUA	374
FOR0039		ENTREGA	MANUEL VITORINO	ENCANTADO	20740-280	RIO DE JANEIRO	RIO DE JANEIRO	BR	RJ				bo_ShipTo			RUA	155